% program   : RTKLIB ver.demo5 b34L
% inp file  : gnss_log.obs
% inp file  : base.25o
% inp file  : Test2440_R_20252440000_01D_MN.25n
% obs start : 2025/09/01 08:06:40.0 GPST (week2382 115600.0s)
% obs end   : 2025/09/01 08:10:00.0 GPST (week2382 115800.0s)
% pos mode  : DGPS
% freqs     : L1
% solution  : Forward
% elev mask : 7.0 deg
% dynamics  : on
% tidecorr  :
% ionos opt : Broadcast
% tropo opt : OFF
% ephemeris : Broadcast
% navi sys  : GPS BDS
% antenna1  :                       ( 0.0000  0.0000  0.0000)
% antenna2  :                       ( 0.0000  0.0000  0.0000)
% ref pos   :  30.576915109  114.361121283    45.5371
%
% (lat/lon/height=WGS84/ellipsoidal,Q=1:fix,2:float,3:sbas,4:dgps,5:single,6:ppp,ns=# of satellites)
%  GPST          latitude(deg) longitude(deg)  height(m)   Q  ns   sdn(m)   sde(m)   sdu(m)  sdne(m)  sdeu(m)  sdun(m) age(s)  ratio
2382 115599.999   30.491418623  114.320293955     9.2682   4  21   0.4267   0.4410   1.1001   0.0390   0.4329  -0.3112  -0.00    0.0
2382 115600.999   30.491497480  114.320306962     6.5781   4  21   0.4349   0.3931   1.0331  -0.0653   0.3282  -0.3073  -0.00    0.0
2382 115601.999   30.491594511  114.320299089     6.0654   4  21   0.4348   0.3931   1.0327  -0.0653   0.3281  -0.3072  -0.00    0.0
2382 115602.999   30.491688155  114.320313751     4.7697   4  21   0.4518   0.3991   1.0863   0.0962   0.2868  -0.3966  -0.00    0.0
2382 115603.999   30.491791574  114.320322977     7.0976   4  21   0.4398   0.3922   1.0554  -0.0615   0.3252  -0.2726  -0.00    0.0
2382 115604.999   30.491887470  114.320337744     7.4689   4  22   0.4252   0.3919   1.0251  -0.0467   0.3306  -0.3203  -0.00    0.0
2382 115605.999   30.491996421  114.320329169     2.7226   4  22   0.4252   0.3919   1.0250  -0.0468   0.3306  -0.3202  -0.00    0.0
2382 115606.999   30.492105262  114.320342732     5.3409   4  21   0.4263   0.3947   1.0701  -0.0603   0.3081  -0.3051  -0.00    0.0
2382 115607.999   30.492220064  114.320354746     1.0059   4  21   0.4516   0.3990   1.0867   0.0958   0.2870  -0.3969  -0.00    0.0
2382 115608.999   30.492315996  114.320328865     8.6688   4  21   0.4262   0.3948   1.0705  -0.0604   0.3082  -0.3053  -0.00    0.0
2382 115609.999   30.492423027  114.320326072    10.7043   4  22   0.4262   0.3948   1.0705  -0.0605   0.3083  -0.3054  -0.00    0.0
2382 115610.999   30.492542713  114.320342415     7.3225   4  22   0.4251   0.3920   1.0254  -0.0471   0.3308  -0.3205  -0.00    0.0
2382 115611.999   30.492670051  114.320325624     2.2441   4  22   0.4251   0.3920   1.0253  -0.0472   0.3308  -0.3205  -0.00    0.0
2382 115612.999   30.492795287  114.320328455    -1.1766   4  20   0.4575   0.4053   1.1400   0.1198   0.3267  -0.3635  -0.00    0.0
2382 115613.999   30.492874413  114.320302107     0.1679   4  22   0.4250   0.3921   1.0256  -0.0474   0.3309  -0.3206  -0.00    0.0
2382 115614.999   30.492977536  114.320305932     4.5802   4  20   0.4421   0.3954   1.1122  -0.0786   0.2980  -0.2408  -0.00    0.0
2382 115615.999   30.493084968  114.320308866     3.3154   4  21   0.4332   0.3993   1.0742   0.0639   0.3655  -0.2756  -0.00    0.0
2382 115616.999   30.493188822  114.320282911     3.3086   4  21   0.4261   0.3949   1.0709  -0.0607   0.3086  -0.3056  -0.00    0.0
2382 115617.999   30.493319309  114.320280874    -2.4236   4  20   0.4614   0.3998   1.1261   0.0834   0.2760  -0.3603  -0.00    0.0
2382 115618.999   30.493432776  114.320254905    -5.7034   4  19   0.4516   0.4460   1.2219   0.0970   0.3799  -0.3893  -0.00    0.0
2382 115619.999   30.493544580  114.320261819     7.4411   4  20   0.4342   0.4186   1.1053   0.0890   0.3649  -0.2663  -0.00    0.0
2382 115620.999   30.493663890  114.320257915     6.4177   4  22   0.4260   0.3949   1.0714  -0.0609   0.3090  -0.3060  -0.00    0.0
2382 115621.999   30.493820851  114.320267580    -2.6095   4  21   0.4513   0.3992   1.0879   0.0950   0.2877  -0.3975  -0.00    0.0
2382 115622.999   30.493941292  114.320273266     3.6813   4  19   0.4578   0.4082   1.2096   0.1152   0.2965  -0.3523  -0.00    0.0
2382 115623.999   30.494045884  114.320249332     7.9859   4  21   0.4260   0.3950   1.0715  -0.0610   0.3089  -0.3062  -0.00    0.0
2382 115624.999   30.494144864  114.320263067     5.2246   4  19   0.4702   0.4036   1.1864   0.0767   0.2620  -0.4416  -0.00    0.0
2382 115625.999   30.494232984  114.320271099     3.0162   4  19   0.4702   0.4036   1.1865   0.0766   0.2621  -0.4417  -0.00    0.0
2382 115626.999   30.494334791  114.320282503    -4.2864   4  20   0.4574   0.4055   1.1422   0.1193   0.3276  -0.3645  -0.00    0.0
2382 115627.999   30.494396614  114.320311294     3.9955   4  20   0.4444   0.3979   1.0947   0.0478   0.3258  -0.2561  -0.00    0.0
2382 115628.999   30.494495897  114.320328057    -0.1964   4  22   0.4248   0.3923   1.0265  -0.0483   0.3314  -0.3213  -0.00    0.0
2382 115629.999   30.494606354  114.320349658    -0.2667   4  21   0.4390   0.3925   1.0568  -0.0623   0.3260  -0.2742  -0.00    0.0
2382 115630.999   30.494701431  114.320335314     2.1096   4  21   0.4258   0.3950   1.0712  -0.0613   0.3092  -0.3063  -0.00    0.0
2382 115631.999   30.494788086  114.320328499    -0.5287   4  21   0.4390   0.3926   1.0569  -0.0624   0.3261  -0.2743  -0.00    0.0
2382 115632.999   30.494860061  114.320331580    -1.2582   4  22   0.4247   0.3923   1.0264  -0.0486   0.3314  -0.3213  -0.00    0.0
2382 115633.999   30.494938891  114.320320032    -0.4994   4  22   0.4247   0.3924   1.0264  -0.0486   0.3314  -0.3213  -0.00    0.0
2382 115634.999   30.495013188  114.320321041     3.6377   4  21   0.4389   0.3926   1.0569  -0.0625   0.3262  -0.2745  -0.00    0.0
2382 115635.999   30.495064926  114.320306315     1.6613   4  21   0.4323   0.4174   1.0553   0.0955   0.3805  -0.2890  -0.00    0.0
2382 115636.999   30.495120868  114.320313613     0.0235   4  21   0.4257   0.3951   1.0715  -0.0615   0.3095  -0.3066  -0.00    0.0
2382 115637.999   30.495168494  114.320315458     3.3663   4  20   0.4413   0.3957   1.1131  -0.0788   0.2992  -0.2429  -0.00    0.0
2382 115638.999   30.495200983  114.320314791     5.0777   4  20   0.4413   0.3957   1.1133  -0.0789   0.2992  -0.2430  -0.00    0.0
2382 115639.999   30.495217755  114.320373653    12.4032   4  20   0.4348   0.4015   1.1302   0.0500   0.3483  -0.2497  -0.00    0.0
2382 115640.999   30.495246897  114.320401225    15.4435   4  20   0.4348   0.4015   1.1303   0.0500   0.3484  -0.2497  -0.00    0.0
2382 115641.999   30.495248166  114.320427085    12.7321   4  22   0.4245   0.3925   1.0272  -0.0492   0.3318  -0.3217  -0.00    0.0
2382 115642.999   30.495288615  114.320454355    11.7634   4  20   0.4411   0.3957   1.1135  -0.0789   0.2995  -0.2433  -0.00    0.0
2382 115643.999   30.495319799  114.320536014    13.5798   4  20   0.4523   0.3998   1.1248   0.0657   0.3677  -0.1827  -0.00    0.0
2382 115644.999   30.495294870  114.320615924    14.4941   4  19   0.4359   0.4026   1.1827   0.0395   0.3626  -0.2717  -0.00    0.0
2382 115645.999   30.495251933  114.320724064    10.0047   4  20   0.4270   0.4020   1.0748  -0.0802   0.3014  -0.3029  -0.00    0.0
2382 115646.999   30.495228130  114.320829586    10.1800   4  20   0.4274   0.3959   1.1177  -0.0688   0.3211  -0.3272  -0.00    0.0
2382 115647.999   30.495194887  114.320946283     4.8343   4  22   0.4244   0.3926   1.0273  -0.0495   0.3319  -0.3220  -0.00    0.0
2382 115648.999   30.495155132  114.321082212     8.7567   4  19   0.4421   0.3963   1.1638  -0.0831   0.3112  -0.2653  -0.00    0.0
2382 115649.999   30.495099825  114.321222635     8.6013   4  20   0.4274   0.3959   1.1177  -0.0689   0.3211  -0.3273  -0.00    0.0
2382 115650.999   30.495074165  114.321347544     7.9017   4  21   0.4384   0.3928   1.0583  -0.0630   0.3268  -0.2756  -0.00    0.0
2382 115651.999   30.495039855  114.321471717     7.7728   4  22   0.4244   0.3926   1.0275  -0.0498   0.3320  -0.3221  -0.00    0.0
2382 115652.999   30.495009545  114.321608576     6.7312   4  21   0.4257   0.3991   1.0291  -0.0704   0.3254  -0.3188  -0.00    0.0
2382 115653.999   30.495013859  114.321728245     6.1227   4  20   0.4869   0.3940   1.1114  -0.1015   0.3419  -0.3850  -0.00    0.0
2382 115654.999   30.494972911  114.321861777     4.9865   4  22   0.4243   0.3927   1.0275  -0.0500   0.3321  -0.3223  -0.00    0.0
2382 115655.999   30.494956382  114.321992119     8.1046   4  21   0.4382   0.3929   1.0582  -0.0632   0.3269  -0.2760  -0.00    0.0
2382 115656.999   30.494930404  114.322130836     8.6348   4  19   0.4430   0.4030   1.1179  -0.0981   0.2879  -0.2358  -0.00    0.0
2382 115657.999   30.494903500  114.322280382    11.7022   4  19   0.4564   0.4018   1.1983   0.0439   0.3470  -0.0860  -0.00    0.0
2382 115658.999   30.494877247  114.322411418    10.7004   4  20   0.4406   0.3959   1.1146  -0.0790   0.3003  -0.2447  -0.00    0.0
2382 115659.999   30.494839096  114.322549609     6.0684   4  21   0.4246   0.4408   1.0938   0.0315   0.4302  -0.3120  -0.00    0.0
2382 115660.999   30.494803531  114.322680783     8.0010   4  22   0.4242   0.3928   1.0280  -0.0503   0.3323  -0.3224  -0.00    0.0
2382 115661.999   30.494762968  114.322787120     7.5111   4  20   0.4513   0.4067   1.0934   0.0811   0.2787  -0.3963  -0.00    0.0
2382 115662.999   30.494739312  114.322894845     4.4821   4  21   0.4380   0.3930   1.0586  -0.0633   0.3271  -0.2764  -0.00    0.0
2382 115663.999   30.494723367  114.323000454     4.1255   4  20   0.4401   0.3997   1.0616  -0.0844   0.3182  -0.2704  -0.00    0.0
2382 115664.999   30.494698657  114.323089305     0.9960   4  21   0.4379   0.3930   1.0587  -0.0633   0.3271  -0.2764  -0.00    0.0
2382 115665.999   30.494659060  114.323190864     5.9046   4  21   0.4379   0.3930   1.0587  -0.0634   0.3272  -0.2764  -0.00    0.0
2382 115666.999   30.494623339  114.323303166     5.2389   4  19   0.4541   0.4063   1.1304   0.0319   0.3597  -0.1714  -0.00    0.0
2382 115667.999   30.494593361  114.323408805     6.5003   4  19   0.4409   0.4001   1.1131  -0.0869   0.3258  -0.2875  -0.00    0.0
2382 115668.999   30.494577797  114.323524836     2.3514   4  18   0.4620   0.4126   1.2083   0.0453   0.2077  -0.3415  -0.00    0.0
2382 115669.999   30.494553167  114.323646835     5.5785   4  18   0.4718   0.4129   1.2137   0.1018   0.3122  -0.2930  -0.00    0.0
2382 115670.999   30.494546912  114.323760190     4.7079   4  18   0.4589   0.4084   1.2057  -0.0411   0.3357  -0.0442  -0.00    0.0
2382 115671.999   30.494503950  114.323850101     4.4587   4  18   0.4580   0.4157   1.2193   0.1033   0.2866  -0.3493  -0.00    0.0
2382 115672.999   30.494511423  114.323934777    -0.6641   4  18   0.4580   0.4157   1.2194   0.1033   0.2867  -0.3493  -0.00    0.0
2382 115673.999   30.494495038  114.323991608    -2.8401   4  22   0.4240   0.3930   1.0292  -0.0510   0.3327  -0.3231  -0.00    0.0
2382 115674.999   30.494462944  114.324048590     2.1800   4  19   0.4424   0.4032   1.1192  -0.0982   0.2889  -0.2377  -0.00    0.0
2382 115675.999   30.494442157  114.324100231     1.8651   4  22   0.4239   0.3930   1.0286  -0.0511   0.3326  -0.3230  -0.00    0.0
2382 115676.999   30.494428942  114.324165074     4.9565   4  20   0.4269   0.3998   1.0771  -0.0754   0.3336  -0.3373  -0.00    0.0
2382 115677.999   30.494436258  114.324187204     3.7320   4  21   0.4259   0.3938   1.0725  -0.0603   0.3438  -0.3417  -0.00    0.0
2382 115678.999   30.494443940  114.324183780     2.6854   4  21   0.4249   0.3956   1.0734  -0.0631   0.3112  -0.3088  -0.00    0.0
2382 115679.999   30.494427741  114.324217307     7.9724   4  20   0.4337   0.4017   1.1282   0.0535   0.3820  -0.2968  -0.00    0.0
2382 115680.999   30.494428312  114.324211574     2.3518   4  21   0.4324   0.4005   1.0785   0.0626   0.3683  -0.2773  -0.00    0.0
2382 115681.999   30.494417316  114.324208790    -2.5177   4  22   0.4238   0.3931   1.0291  -0.0515   0.3329  -0.3232  -0.00    0.0
2382 115682.999   30.494425234  114.324259211    -1.4098   4  21   0.4252   0.3996   1.0307  -0.0718   0.3263  -0.3200  -0.00    0.0
2382 115683.999   30.494412408  114.324297166     4.4496   4  19   0.4278   0.4027   1.1250  -0.0843   0.3102  -0.3231  -0.00    0.0
2382 115684.999   30.494402227  114.324353364    -2.7384   4  20   0.4263   0.4025   1.0760  -0.0815   0.3030  -0.3049  -0.00    0.0
2382 115685.999   30.494388684  114.324402235    -2.5751   4  19   0.4420   0.4033   1.1195  -0.0983   0.2895  -0.2388  -0.00    0.0
2382 115686.999   30.494374070  114.324471635     1.7030   4  18   0.4584   0.4087   1.2060  -0.0407   0.3367  -0.0500  -0.00    0.0
2382 115687.999   30.494356157  114.324541785     0.5601   4  21   0.4323   0.4006   1.0793   0.0625   0.3686  -0.2773  -0.00    0.0
2382 115688.999   30.494327297  114.324608283     0.1353   4  19   0.4277   0.4027   1.1260  -0.0845   0.3106  -0.3233  -0.00    0.0
2382 115689.999   30.494307286  114.324697808     1.0572   4  18   0.4426   0.4035   1.1754  -0.0998   0.2969  -0.2571  -0.00    0.0
2382 115690.999   30.494313090  114.324787425     0.0480   4  19   0.4554   0.4023   1.2009   0.0449   0.3494  -0.0928  -0.00    0.0
2382 115691.999   30.494286489  114.324883454    -3.1854   4  20   0.4395   0.3963   1.1163  -0.0793   0.3020  -0.2479  -0.00    0.0
2382 115692.999   30.494269230  114.324993810     3.9148   4  19   0.4554   0.4024   1.2012   0.0451   0.3496  -0.0923  -0.00    0.0
2382 115693.999   30.494212840  114.325090896     6.3191   4  20   0.4395   0.3963   1.1162  -0.0793   0.3021  -0.2480  -0.00    0.0
2382 115694.999   30.494192925  114.325185771     4.2491   4  19   0.4267   0.4506   1.1503  -0.0589   0.4411  -0.3310  -0.00    0.0
2382 115695.999   30.494186148  114.325312275    -0.4515   4  20   0.4664   0.4008   1.0981  -0.1033   0.3427  -0.4182  -0.00    0.0
2382 115696.999   30.494140441  114.325417681     0.3825   4  20   0.5148   0.4215   1.1642   0.2039   0.1770  -0.5105  -0.00    0.0
2382 115697.999   30.494123268  114.325554431    -2.1794   4  20   0.4507   0.4070   1.0964   0.0785   0.2802  -0.3982  -0.00    0.0
2382 115698.999   30.494131945  114.325691670    -5.6616   4  19   0.4571   0.4131   1.1516   0.1075   0.3212  -0.3629  -0.00    0.0
2382 115699.999   30.494047733  114.325784442    -3.5088   4  19   0.5161   0.4275   1.1665   0.1976   0.1628  -0.5086  -0.00    0.0
2382 115700.999   30.494018476  114.325888596    -7.2595   4  22   0.4498   0.3999   1.0938   0.0906   0.2908  -0.4010  -0.00    0.0
2382 115701.999   30.493997379  114.325985424    -0.2842   4  19   0.4398   0.4006   1.1159  -0.0877   0.3272  -0.2897  -0.00    0.0
2382 115702.999   30.493979724  114.326108485     2.3613   4  19   0.4539   0.4071   1.1555   0.0758   0.2848  -0.4226  -0.00    0.0
2382 115703.999   30.493952180  114.326238967     5.4912   4  22   0.4497   0.4000   1.0939   0.0903   0.2909  -0.4009  -0.00    0.0
2382 115704.999   30.493935416  114.326352035    -0.1372   4  19   0.4601   0.4080   1.1378   0.0598   0.2655  -0.3610  -0.00    0.0
2382 115705.999   30.493902817  114.326469594     0.8539   4  20   0.4534   0.4003   1.1488   0.0846   0.3010  -0.4257  -0.00    0.0
2382 115706.999   30.493882002  114.326602178     3.6495   4  18   0.4594   0.4134   1.2204   0.1039   0.3304  -0.3884  -0.00    0.0
2382 115707.999   30.493838235  114.326723447    -2.8009   4  19   0.4616   0.4009   1.1946   0.0737   0.2906  -0.3914  -0.00    0.0
2382 115708.999   30.493797455  114.326851715    -5.4136   4  20   0.4587   0.4006   1.1340   0.0788   0.2804  -0.3662  -0.00    0.0
2382 115709.999   30.493772778  114.326999442     0.7797   4  19   0.4694   0.4266   1.1614   0.1443   0.3399  -0.3301  -0.00    0.0
2382 115710.999   30.493722892  114.327109339    10.7223   4  18   0.4363   0.4095   1.1955  -0.0294   0.3550  -0.2648  -0.00    0.0
2382 115711.999   30.493723982  114.327247077     3.1037   4  18   0.4573   0.4161   1.2223   0.1019   0.2900  -0.3507  -0.00    0.0
2382 115712.999   30.493683647  114.327363023    13.1050   4  16   0.4737   0.4167   1.4094   0.0872   0.2787  -0.2828  -0.00    0.0
2382 115713.999   30.493647842  114.327458536    11.3498   4  20   0.4259   0.4028   1.0785  -0.0824   0.3044  -0.3066  -0.00    0.0
2382 115714.999   30.493634075  114.327568526     8.2799   4  21   0.4247   0.4001   1.0332  -0.0732   0.3274  -0.3215  -0.00    0.0
2382 115715.999   30.493605378  114.327636763    10.3074   4  21   0.4243   0.3961   1.0751  -0.0643   0.3126  -0.3105  -0.00    0.0
2382 115716.999   30.493595801  114.327722084    12.0337   4  21   0.4319   0.4011   1.0806   0.0620   0.3696  -0.2782  -0.00    0.0
2382 115717.999   30.493585104  114.327797312    11.4050   4  21   0.4319   0.4012   1.0808   0.0620   0.3697  -0.2782  -0.00    0.0
2382 115718.999   30.493571970  114.327874610    10.0917   4  21   0.4319   0.4012   1.0809   0.0620   0.3698  -0.2782  -0.00    0.0
2382 115719.999   30.493566194  114.327905423     5.0328   4  20   0.4662   0.4011   1.0985  -0.1042   0.3433  -0.4189  -0.00    0.0
2382 115720.999   30.493569985  114.327948777     7.7502   4  20   0.4651   0.3969   1.1450  -0.0945   0.3283  -0.4143  -0.00    0.0
2382 115721.999   30.493556765  114.328009794    10.0867   4  20   0.4652   0.3969   1.1452  -0.0946   0.3283  -0.4145  -0.00    0.0
2382 115722.999   30.493531437  114.328042894    13.6671   4  21   0.4242   0.3961   1.0758  -0.0647   0.3131  -0.3112  -0.00    0.0
2382 115723.999   30.493521884  114.328050496    13.4170   4  20   0.4494   0.4037   1.1510   0.0859   0.2571  -0.3971  -0.00    0.0
2382 115724.999   30.493538018  114.328076186    12.3716   4  18   0.5034   0.4094   1.2787   0.1005   0.3120  -0.4576  -0.00    0.0
2382 115725.999   30.493509900  114.328091116    10.1490   4  19   0.4503   0.4112   1.1556   0.0721   0.2426  -0.3941  -0.00    0.0
2382 115726.999   30.493479293  114.328118724     0.0195   4  20   0.4595   0.4082   1.1401   0.0582   0.2668  -0.3625  -0.00    0.0
2382 115727.999   30.493466444  114.328164405     5.6469   4  19   0.4614   0.4050   1.2735   0.0636   0.2458  -0.3802  -0.00    0.0
2382 115728.999   30.493463188  114.328204103    10.8482   4  20   0.4529   0.4006   1.1514   0.0830   0.3024  -0.4265  -0.00    0.0
2382 115729.999   30.493460067  114.328242388    12.5063   4  19   0.4502   0.4113   1.1559   0.0718   0.2429  -0.3943  -0.00    0.0
2382 115730.999   30.493440146  114.328259240    12.4731   4  19   0.4501   0.4113   1.1556   0.0717   0.2429  -0.3942  -0.00    0.0
2382 115731.999   30.493391563  114.328303183    10.1499   4  22   0.4230   0.3938   1.0320  -0.0542   0.3342  -0.3255  -0.00    0.0
2382 115732.999   30.493358844  114.328335468    12.6422   4  20   0.4354   0.4359   1.0921   0.1159   0.4030  -0.2632  -0.00    0.0
2382 115733.999   30.493288620  114.328333118    10.1044   4  22   0.4229   0.3938   1.0317  -0.0543   0.3343  -0.3253  -0.00    0.0
2382 115734.999   30.493224386  114.328322472     5.7275   4  22   0.4229   0.3938   1.0317  -0.0543   0.3344  -0.3253  -0.00    0.0
2382 115735.999   30.493145970  114.328303403     6.6847   4  19   0.5033   0.4072   1.2075   0.1021   0.3411  -0.4615  -0.00    0.0
2382 115736.999   30.493072324  114.328285419     3.4314   4  21   0.4358   0.3941   1.0632  -0.0656   0.3296  -0.2814  -0.00    0.0
2382 115737.999   30.492978064  114.328279540     4.1675   4  22   0.4229   0.3939   1.0322  -0.0546   0.3345  -0.3257  -0.00    0.0
2382 115738.999   30.492881950  114.328249693     3.7938   4  20   0.4491   0.4038   1.1516   0.0851   0.2581  -0.3975  -0.00    0.0
2382 115739.999   30.492759108  114.328215810     5.6686   4  21   0.4316   0.4016   1.0823   0.0616   0.3706  -0.2789  -0.00    0.0
2382 115740.999   30.492647622  114.328198159     5.8724   4  22   0.4228   0.3939   1.0323  -0.0547   0.3345  -0.3257  -0.00    0.0
2382 115741.999   30.492513782  114.328155308     5.6357   4  21   0.4239   0.4080   1.0705  -0.0786   0.2859  -0.3122  -0.00    0.0
2382 115742.999   30.492368284  114.328072006     1.0523   4  21   0.4263   0.4283   1.0415   0.0788   0.3680  -0.3136  -0.00    0.0
2382 115743.999   30.492232956  114.328041100     0.6367   4  22   0.4227   0.3940   1.0321  -0.0548   0.3346  -0.3257  -0.00    0.0
2382 115744.999   30.492095885  114.328012351     1.2622   4  22   0.4227   0.3940   1.0321  -0.0548   0.3346  -0.3257  -0.00    0.0
2382 115745.999   30.491960735  114.327982365    10.2987   4  21   0.4355   0.3942   1.0632  -0.0657   0.3298  -0.2817  -0.00    0.0
2382 115746.999   30.491812069  114.327925751     9.1408   4  20   0.4368   0.4431   1.1441   0.0508   0.4407  -0.2549  -0.00    0.0
2382 115747.999   30.491669250  114.327849177     0.9620   4  19   0.4393   0.4764   1.1519   0.1041   0.4660  -0.2426  -0.00    0.0
2382 115748.999   30.491543268  114.327809696     2.6845   4  19   0.4496   0.4501   1.0773  -0.1011   0.3363  -0.2485  -0.00    0.0
2382 115749.999   30.491383567  114.327760512     1.5192   4  13   0.5647   0.5631   1.4164   0.2011   0.5254  -0.2197  -0.00    0.0
2382 115750.999   30.491224884  114.327725168     3.3530   4  13   0.6932   0.6075   1.4552   0.4206   0.4491  -0.4750  -0.00    0.0
2382 115751.999   30.491138007  114.327702355     1.1849   4  16   0.5403   0.5391   1.3098   0.2551   0.5310  -0.1196  -0.00    0.0
2382 115752.999   30.491038811  114.327657515     7.0445   4  15   0.5451   0.5399   1.4068   0.2512   0.5168   0.1506  -0.00    0.0
2382 115753.999   30.490925380  114.327611687     9.1079   4  15   0.5450   0.5399   1.4069   0.2511   0.5170   0.1515  -0.00    0.0
2382 115754.999   30.490828627  114.327575997     1.9689   4  16   0.4915   0.5300   1.4082   0.1830   0.5470  -0.2894  -0.00    0.0
2382 115755.999   30.490771524  114.327575034     5.5894   4  20   0.4755   0.4169   1.1155   0.1607   0.3314  -0.3604  -0.00    0.0
2382 115756.999   30.490702304  114.327558468     9.3371   4  21   0.4353   0.3945   1.0651  -0.0660   0.3307  -0.2826  -0.00    0.0
2382 115757.999   30.490655068  114.327527284     8.6631   4  22   0.4225   0.3942   1.0332  -0.0554   0.3351  -0.3263  -0.00    0.0
2382 115758.999   30.490587266  114.327508090    10.3913   4  20   0.4331   0.4035   1.1368   0.0491   0.3549  -0.2542  -0.00    0.0
2382 115759.999   30.490552161  114.327504091    11.0941   4  20   0.4331   0.4035   1.1371   0.0491   0.3550  -0.2543  -0.00    0.0
2382 115760.999   30.490505059  114.327494153    11.4898   4  21   0.4234   0.3966   1.0775  -0.0659   0.3148  -0.3127  -0.00    0.0
2382 115761.999   30.490473465  114.327480340    11.4764   4  19   0.4368   0.4381   1.1462   0.1101   0.3877  -0.2380  -0.00    0.0
2382 115762.999   30.490462894  114.327470819     4.7466   4  19   0.4587   0.4487   1.1539   0.1606   0.2703  -0.3952  -0.00    0.0
2382 115763.999   30.490437497  114.327458453     8.5888   4  20   0.4587   0.4444   1.0994   0.1616   0.3084  -0.3976  -0.00    0.0
2382 115764.999   30.490431829  114.327464370     5.5002   4  17   0.5142   0.5325   1.2822   0.2713   0.5204  -0.2884  -0.00    0.0
2382 115765.999   30.490470102  114.327481685    -1.3339   4  16   0.4877   0.5284   1.4015   0.1672   0.4873  -0.1971  -0.00    0.0
2382 115766.999   30.490466849  114.327466172    -5.8003   4  19   0.4653   0.4509   1.1565   0.1788   0.3498  -0.3617  -0.00    0.0
2382 115767.999   30.490468829  114.327440741   -12.9518   4  19   0.4675   0.4075   1.2184   0.1133   0.3338  -0.3063  -0.00    0.0
2382 115768.999   30.490475784  114.327441137   -11.1752   4  20   0.4549   0.4075   1.1548   0.1149   0.3356  -0.3681  -0.00    0.0
2382 115769.999   30.490481315  114.327432779    -8.2458   4  19   0.4557   0.4661   1.1752  -0.0603   0.3933  -0.3951  -0.00    0.0
2382 115770.999   30.490491888  114.327431978   -11.7891   4  19   0.4809   0.4235   1.1150   0.0892   0.2870  -0.3615  -0.00    0.0
2382 115771.999   30.490458408  114.327452937   -13.7181   4  18   0.5056   0.4147   1.2337   0.0943   0.3068  -0.4573  -0.00    0.0
2382 115772.999   30.490430479  114.327474804    -7.1614   4  17   0.5309   0.4284   1.2244  -0.0793   0.3011  -0.4209  -0.00    0.0
2382 115773.999   30.490439629  114.327454987    -2.7697   4  20   0.4508   0.4119   1.1020   0.0542   0.2818  -0.3997  -0.00    0.0
2382 115774.999   30.490404883  114.327440597    -7.8239   4  20   0.4568   0.4012   1.1391   0.0753   0.2837  -0.3701  -0.00    0.0
2382 115775.999   30.490410714  114.327445275    -4.8498   4  21   0.4567   0.4012   1.1389   0.0753   0.2837  -0.3701  -0.00    0.0
2382 115776.999   30.490362645  114.327456180     9.4103   4  20   0.4360   0.4070   1.0694  -0.0884   0.3172  -0.2786  -0.00    0.0
2382 115777.999   30.490404657  114.327463325     6.8923   4  20   0.4566   0.4012   1.1390   0.0752   0.2838  -0.3700  -0.00    0.0
2382 115778.999   30.490395973  114.327451323     6.8820   4  19   0.5088   0.4535   1.1991   0.0796   0.3356  -0.4619  -0.00    0.0
2382 115779.999   30.490375330  114.327447815    16.9897   4  19   0.4569   0.4464   1.2335   0.0937   0.4159  -0.3600  -0.00    0.0
2382 115780.999   30.490380508  114.327406230    19.5162   4  20   0.4572   0.4052   1.2100   0.0654   0.2409  -0.3573  -0.00    0.0
2382 115781.999   30.490381153  114.327401509    18.5518   4  18   0.4762   0.4556   1.3125   0.1655   0.2892  -0.2784  -0.00    0.0
2382 115782.999   30.490372077  114.327379134    13.6532   4  20   0.4565   0.4013   1.1403   0.0749   0.2842  -0.3706  -0.00    0.0
2382 115783.999   30.490387502  114.327410614    12.0394   4  18   0.4797   0.4860   1.1698   0.2135   0.3648  -0.3246  -0.00    0.0
2382 115784.999   30.490381602  114.327367965     8.0848   4  21   0.4481   0.4008   1.1001   0.0855   0.2944  -0.4041  -0.00    0.0
2382 115785.999   30.490382377  114.327373074     6.2708   4  21   0.4481   0.4008   1.1000   0.0855   0.2945  -0.4041  -0.00    0.0
2382 115786.999   30.490376521  114.327362292     7.4304   4  20   0.4481   0.4042   1.1552   0.0824   0.2613  -0.4000  -0.00    0.0
2382 115787.999   30.490368729  114.327343760     0.5044   4  18   0.5036   0.4101   1.2818   0.0984   0.3169  -0.4591  -0.00    0.0
2382 115788.999   30.490388579  114.327364909    -3.1483   4  20   0.4481   0.4042   1.1561   0.0822   0.2616  -0.4003  -0.00    0.0
2382 115789.999   30.490379374  114.327358819    -0.6079   4  19   0.4481   0.4482   1.2316   0.0814   0.3882  -0.4007  -0.00    0.0
2382 115790.999   30.490354109  114.327311369    -3.2183   4  17   0.4692   0.4598   1.2276   0.1634   0.3085  -0.3472  -0.00    0.0
2382 115791.999   30.490376890  114.327321542    -2.1601   4  15   0.5502   0.5402   1.3649   0.2380   0.5133  -0.2718  -0.00    0.0
2382 115792.999   30.490394294  114.327421679    12.4848   4  19   0.4592   0.4175   1.2156  -0.0206   0.2202  -0.3516  -0.00    0.0
2382 115793.999   30.490411305  114.327431690    11.6346   4  20   0.4568   0.4053   1.2113   0.0650   0.2422  -0.3583  -0.00    0.0
2382 115794.999   30.490390584  114.327442605     7.9815   4  19   0.4931   0.4047   1.2319   0.0524   0.2771  -0.4978  -0.00    0.0
2382 115795.999   30.490399773  114.327446551     7.3810   4  20   0.4480   0.4042   1.1566   0.0818   0.2620  -0.4006  -0.00    0.0
2382 115796.999   30.490417886  114.327438437     8.6856   4  19   0.5078   0.4059   1.2676  -0.0331   0.2598  -0.4603  -0.00    0.0
2382 115797.999   30.490394080  114.327430796     9.6705   4  19   0.4383   0.4802   1.2701  -0.0652   0.5051  -0.2490  -0.00    0.0
2382 115798.999   30.490376707  114.327443122     7.4822   4  20   0.4230   0.4450   1.1450  -0.0409   0.4201  -0.3063  -0.00    0.0
2382 115799.999   30.490376813  114.327447506     8.3997   4  19   0.4667   0.4451   1.1932  -0.0317   0.4189  -0.4001  -0.00    0.0
